$$SOE
2461295.500000000, A.D. 2026-Sep-12 00:00:00.0000, -3.188096376598468E+08, -7.760690123197885E+07, -9.746709071978223E+06,
2461302.500000000, A.D. 2026-Sep-19 00:00:00.0000, -3.174340607791426E+08, -9.011515156355396E+07, -9.863952859005839E+06,
2461309.500000000, A.D. 2026-Sep-26 00:00:00.0000, -3.156302049457037E+08, -1.025018362674569E+08, -9.967886907173537E+06,
2461316.500000000, A.D. 2026-Oct-03 00:00:00.0000, -3.134077010311182E+08, -1.147525845407698E+08, -1.005859824807157E+07,
2461323.500000000, A.D. 2026-Oct-10 00:00:00.0000, -3.107765501808332E+08, -1.268537337431106E+08, -1.013619293865982E+07,
2461330.500000000, A.D. 2026-Oct-17 00:00:00.0000, -3.077470747616106E+08, -1.387923227098347E+08, -1.020079462075741E+07,
2461337.500000000, A.D. 2026-Oct-24 00:00:00.0000, -3.043298721165867E+08, -1.505560823225336E+08, -1.025254313004524E+07,
2461344.500000000, A.D. 2026-Oct-31 00:00:00.0000, -3.005357710832790E+08, -1.621334237823009E+08, -1.029159317507721E+07,
2461351.500000000, A.D. 2026-Nov-07 00:00:00.0000, -2.963757909526631E+08, -1.735134248692652E+08, -1.031811311604711E+07,
2461358.500000000, A.D. 2026-Nov-14 00:00:00.0000, -2.918611026531597E+08, -1.846858136348366E+08, -1.033228379265409E+07,
2461365.500000000, A.D. 2026-Nov-21 00:00:00.0000, -2.870029939275626E+08, -1.956409491540139E+08, -1.033429718154499E+07,
2461372.500000000, A.D. 2026-Nov-28 00:00:00.0000, -2.818128394352283E+08, -2.063698026319416E+08, -1.032435503937225E+07,
2461379.500000000, A.D. 2026-Dec-05 00:00:00.0000, -2.763020720794923E+08, -2.168639397834708E+08, -1.030266791817252E+07,
2461386.500000000, A.D. 2026-Dec-12 00:00:00.0000, -2.704821553005453E+08, -2.271155016093234E+08, -1.026945431379157E+07,
2461393.500000000, A.D. 2026-Dec-19 00:00:00.0000, -2.643645581112899E+08, -2.371171837700023E+08, -1.022493977256478E+07,
2461400.500000000, A.D. 2026-Dec-26 00:00:00.0000, -2.579607328982176E+08, -2.468622156109003E+08, -1.016935601273176E+07,
2461407.500000000, A.D. 2027-Jan-02 00:00:00.0000, -2.512820955866725E+08, -2.563443391961510E+08, -1.010294010024798E+07,
2461414.500000000, A.D. 2027-Jan-09 00:00:00.0000, -2.443400079286388E+08, -2.655577884784778E+08, -1.002593368667132E+07,
2461421.500000000, A.D. 2027-Jan-16 00:00:00.0000, -2.371457617530634E+08, -2.744972687233567E+08, -9.938582309744164E+06,
2461428.500000000, A.D. 2027-Jan-23 00:00:00.0000, -2.297105650080083E+08, -2.831579363355250E+08, -9.841134761885494E+06,
2461435.500000000, A.D. 2027-Jan-30 00:00:00.0000, -2.220455292834535E+08, -2.915353792278892E+08, -9.733842545404583E+06,
2461442.500000000, A.D. 2027-Feb-06 00:00:00.0000, -2.141616582696766E+08, -2.996255974706150E+08, -9.616959423285797E+06,
2461449.500000000, A.D. 2027-Feb-13 00:00:00.0000, -2.060698374952126E+08, -3.074249830645251E+08, -9.490740921259463E+06,
2461456.500000000, A.D. 2027-Feb-20 00:00:00.0000, -1.977808275957299E+08, -3.149302996801402E+08, -9.355443626560524E+06,
2461463.500000000, A.D. 2027-Feb-27 00:00:00.0000, -1.893052596098742E+08, -3.221386656155348E+08, -9.211324671630636E+06,
2461470.500000000, A.D. 2027-Mar-06 00:00:00.0000, -1.806536291814836E+08, -3.290475380798559E+08, -9.058641519829527E+06,
2461477.500000000, A.D. 2027-Mar-13 00:00:00.0000, -1.718362911687140E+08, -3.356546967716826E+08, -8.897651736066476E+06,
2461484.500000000, A.D. 2027-Mar-20 00:00:00.0000, -1.628634556917996E+08, -3.419582275990847E+08, -8.728612704549894E+06,
2461491.500000000, A.D. 2027-Mar-27 00:00:00.0000, -1.537451853252520E+08, -3.479565071006709E+08, -8.551781355318144E+06,
2461498.500000000, A.D. 2027-Apr-03 00:00:00.0000, -1.444913931480749E+08, -3.536481876240923E+08, -8.367413920778126E+06,
2461505.500000000, A.D. 2027-Apr-10 00:00:00.0000, -1.351118415163576E+08, -3.590321832437812E+08, -8.175765724592075E+06,
2461512.500000000, A.D. 2027-Apr-17 00:00:00.0000, -1.256161414690183E+08, -3.641076564309825E+08, -7.977091004260406E+06,
2461519.500000000, A.D. 2027-Apr-24 00:00:00.0000, -1.160137526248514E+08, -3.688740055306424E+08, -7.771642777568460E+06,
2461526.500000000, A.D. 2027-May-01 00:00:00.0000, -1.063139832117405E+08, -3.733308530053255E+08, -7.559672775938332E+06,
2461533.500000000, A.D. 2027-May-08 00:00:00.0000, -9.652598986462076E+07, -3.774780336833142E+08, -7.341431409736663E+06,
2461540.500000000, A.D. 2027-May-15 00:00:00.0000, -8.665877863705555E+07, -3.813155820408710E+08, -7.117167548549086E+06,
2461547.500000000, A.D. 2027-May-22 00:00:00.0000, -7.672120874174997E+07, -3.848437210919100E+08, -6.887128183279306E+06,
2461554.500000000, A.D. 2027-May-29 00:00:00.0000, -6.672199561948600E+07, -3.880628543358302E+08, -6.651558396544695E+06,
2461561.500000000, A.D. 2027-Jun-05 00:00:00.0000, -5.666971241229046E+07, -3.909735576148962E+08, -6.410701465182841E+06,
2461568.500000000, A.D. 2027-Jun-12 00:00:00.0000, -4.657279181304783E+07, -3.935765704302829E+08, -6.164798873953611E+06,
2461575.500000000, A.D. 2027-Jun-19 00:00:00.0000, -3.643952858972923E+07, -3.958727876309131E+08, -5.914090285018444E+06,
2461582.500000000, A.D. 2027-Jun-26 00:00:00.0000, -2.627808247401183E+07, -3.978632517151231E+08, -5.658813508829176E+06,
2461589.500000000, A.D. 2027-Jul-03 00:00:00.0000, -1.609648125312840E+07, -3.995491457161553E+08, -5.399204486705095E+06,
2461596.500000000, A.D. 2027-Jul-10 00:00:00.0000, -5.902624000899329E+06, -4.009317866438773E+08, -5.135497286808312E+06,
2461603.500000000, A.D. 2027-Jul-17 00:00:00.0000, 4.295715612836658E+06, -4.020126195052885E+08, -4.867924119132012E+06,
2461610.500000000, A.D. 2027-Jul-24 00:00:00.0000, 1.449088611155664E+07, -4.027932119519387E+08, -4.596715388017833E+06,
2461617.500000000, A.D. 2027-Jul-31 00:00:00.0000, 2.467535552895943E+07, -4.032752493040667E+08, -4.322099799685717E+06,
2461624.500000000, A.D. 2027-Aug-07 00:00:00.0000, 3.484170906769712E+07, -4.034605287841876E+08, -4.044304411307991E+06,
2461631.500000000, A.D. 2027-Aug-14 00:00:00.0000, 4.498264481228629E+07, -4.033509531964006E+08, -3.763554430519849E+06,
2461638.500000000, A.D. 2027-Aug-21 00:00:00.0000, 5.509096812770151E+07, -4.029485273978209E+08, -3.480073096515149E+06,
2461645.500000000, A.D. 2027-Aug-28 00:00:00.0000, 6.515958818781883E+07, -4.022553563435926E+08, -3.194081858696640E+06,
2461652.500000000, A.D. 2027-Sep-04 00:00:00.0000, 7.518151546392447E+07, -4.012736421900412E+08, -2.905800539641112E+06,
2461659.500000000, A.D. 2027-Sep-11 00:00:00.0000, 8.514985878775315E+07, -4.000056811041328E+08, -2.615447408110082E+06,
2461666.500000000, A.D. 2027-Sep-18 00:00:00.0000, 9.505782213113263E+07, -3.984538604163363E+08, -2.323239227227509E+06,
2461673.500000000, A.D. 2027-Sep-25 00:00:00.0000, 1.048987013391285E+08, -3.966206561818932E+08, -2.029391305011541E+06,
2461680.500000000, A.D. 2027-Oct-02 00:00:00.0000, 1.146658808990066E+08, -3.945086311105831E+08, -1.734117551834852E+06,
2461687.500000000, A.D. 2027-Oct-09 00:00:00.0000, 1.243528307745840E+08, -3.921204328574604E+08, -1.437630547288537E+06,
2461694.500000000, A.D. 2027-Oct-16 00:00:00.0000, 1.339531033765859E+08, -3.894587927187012E+08, -1.140141626761347E+06,
2461701.500000000, A.D. 2027-Oct-23 00:00:00.0000, 1.434603309360859E+08, -3.865265247297878E+08, -8.418610118867457E+05,
2461708.500000000, A.D. 2027-Oct-30 00:00:00.0000, 1.528682236615588E+08, -3.833265245490884E+08, -5.429979689958692E+05,
2461715.500000000, A.D. 2027-Nov-06 00:00:00.0000, 1.621705675198227E+08, -3.798617669922674E+08, -2.437607962655425E+05,
2461722.500000000, A.D. 2027-Nov-13 00:00:00.0000, 1.713612196572855E+08, -3.761353042852253E+08, 5.564337309965491E+04,
2461729.500000000, A.D. 2027-Nov-20 00:00:00.0000, 1.804341043653726E+08, -3.721502672108136E+08, 3.550085068999529E+05,
2461736.500000000, A.D. 2027-Nov-27 00:00:00.0000, 1.893832112113829E+08, -3.679098661749730E+08, 6.541294431071430E+05,
2461743.500000000, A.D. 2027-Dec-04 00:00:00.0000, 1.982025933163485E+08, -3.634173912698891E+08, 9.528017524424642E+05,
2461750.500000000, A.D. 2027-Dec-11 00:00:00.0000, 2.068863652359879E+08, -3.586762122914815E+08, 1.250821666093916E+06,
2461757.500000000, A.D. 2027-Dec-18 00:00:00.0000, 2.154287007269426E+08, -3.536897790466890E+08, 1.547986015848234E+06,
2461764.500000000, A.D. 2027-Dec-25 00:00:00.0000, 2.238238305562217E+08, -3.484616219513599E+08, 1.844092172947660E+06,
2461771.500000000, A.D. 2028-Jan-01 00:00:00.0000, 2.320660403991736E+08, -3.429953529028858E+08, 2.138937983552769E+06,
$$EOE